{"fetched_at":"2026-07-13T18:16:41.644Z","source":"https://celestrak.org/NORAD/elements/gp.php?GROUP=stations&FORMAT=JSON","constellation":"iss","records":[{"OBJECT_NAME":"ISS (ZARYA)","OBJECT_ID":"1998-067A","EPOCH":"2026-07-13T02:54:40.039200","CLASSIFICATION_TYPE":"U","MEAN_MOTION":15.48996109,"ECCENTRICITY":0.00066854,"INCLINATION":51.6304,"RA_OF_ASC_NODE":171.7447,"ARG_OF_PERICENTER":289.3803,"MEAN_ANOMALY":70.6462,"EPHEMERIS_TYPE":0,"NORAD_CAT_ID":25544,"ELEMENT_SET_NO":999,"REV_AT_EPOCH":57577,"BSTAR":0.000086456021,"MEAN_MOTION_DOT":0.00004316,"MEAN_MOTION_DDOT":0}]}
