ISS (ZARYA)             
1 25544U 98067A   26194.12129675  .00004316  00000+0  86456-4 0  9991
2 25544  51.6304 171.7447 0006685 289.3803  70.6462 15.48996109575778
